[{"OBJECT_NAME":"STARLINK-34041","OBJECT_ID":"2025-093J","EPOCH":"2026-03-09T01:37:41.680128","MEAN_MOTION":15.275951,"ECCENTRICITY":0.00013667,"INCLINATION":42.9984,"RA_OF_ASC_NODE":81.709,"ARG_OF_PERICENTER":276.6515,"MEAN_ANOMALY":83.4181,"EPHEMERIS_TYPE":0,"CLASSIFICATION_TYPE":"U","NORAD_CAT_ID":63844,"ELEMENT_SET_NO":999,"REV_AT_EPOCH":4787,"BSTAR":0.0011342279,"MEAN_MOTION_DOT":0.00031096,"MEAN_MOTION_DDOT":0},{"OBJECT_NAME":"CZ-6A DEB","OBJECT_ID":"2024-140AAN","EPOCH":"2026-03-09T15:08:07.195776","MEAN_MOTION":15.20547394,"ECCENTRICITY":0.0064261,"INCLINATION":89.3669,"RA_OF_ASC_NODE":306.3092,"ARG_OF_PERICENTER":93.6352,"MEAN_ANOMALY":267.2246,"EPHEMERIS_TYPE":0,"CLASSIFICATION_TYPE":"U","NORAD_CAT_ID":61480,"ELEMENT_SET_NO":999,"REV_AT_EPOCH":8198,"BSTAR":0.0033609,"MEAN_MOTION_DOT":0.00078405,"MEAN_MOTION_DDOT":0}]
